[{"OBJECT_NAME":"STARLINK-32016","OBJECT_ID":"2024-117F","EPOCH":"2026-03-09T07:12:30.443040","MEAN_MOTION":15.30179748,"ECCENTRICITY":0.00014331,"INCLINATION":53.1622,"RA_OF_ASC_NODE":39.1654,"ARG_OF_PERICENTER":81.2638,"MEAN_ANOMALY":278.8525,"EPHEMERIS_TYPE":0,"CLASSIFICATION_TYPE":"U","NORAD_CAT_ID":60096,"ELEMENT_SET_NO":999,"REV_AT_EPOCH":9682,"BSTAR":-2.2461654e-5,"MEAN_MOTION_DOT":-1.024e-5,"MEAN_MOTION_DDOT":0},{"OBJECT_NAME":"OBJECT A","OBJECT_ID":"2025-234A","EPOCH":"2026-03-09T23:03:34.210368","MEAN_MOTION":15.32505956,"ECCENTRICITY":0.00130678,"INCLINATION":97.4388,"RA_OF_ASC_NODE":139.352,"ARG_OF_PERICENTER":148.634,"MEAN_ANOMALY":211.5684,"EPHEMERIS_TYPE":0,"CLASSIFICATION_TYPE":"U","NORAD_CAT_ID":66053,"ELEMENT_SET_NO":999,"REV_AT_EPOCH":2164,"BSTAR":0.0014840662,"MEAN_MOTION_DOT":0.00046856,"MEAN_MOTION_DDOT":0}]
